{"fetched_at":"2026-07-14T06:34:54.312Z","source":"https://celestrak.org/NORAD/elements/gp.php?NAME=LEGION&FORMAT=JSON","constellation":"maxar-legion","records":[{"OBJECT_NAME":"LEGION 1","OBJECT_ID":"2024-081A","EPOCH":"2026-07-13T19:31:47.900640","CLASSIFICATION_TYPE":"U","MEAN_MOTION":15.16838621,"ECCENTRICITY":0.0007692,"INCLINATION":97.5014,"RA_OF_ASC_NODE":272.3882,"ARG_OF_PERICENTER":275.2188,"MEAN_ANOMALY":84.8167,"EPHEMERIS_TYPE":0,"NORAD_CAT_ID":59625,"ELEMENT_SET_NO":999,"REV_AT_EPOCH":12157,"BSTAR":0.0001045,"MEAN_MOTION_DOT":0.00001989,"MEAN_MOTION_DDOT":0},{"OBJECT_NAME":"LEGION 2","OBJECT_ID":"2024-081B","EPOCH":"2026-07-13T20:15:31.528224","CLASSIFICATION_TYPE":"U","MEAN_MOTION":15.16817567,"ECCENTRICITY":0.0010122,"INCLINATION":97.5015,"RA_OF_ASC_NODE":272.5151,"ARG_OF_PERICENTER":238.6068,"MEAN_ANOMALY":121.4176,"EPHEMERIS_TYPE":0,"NORAD_CAT_ID":59626,"ELEMENT_SET_NO":999,"REV_AT_EPOCH":12158,"BSTAR":0.00010936,"MEAN_MOTION_DOT":0.00002084,"MEAN_MOTION_DDOT":0},{"OBJECT_NAME":"LEGION 3","OBJECT_ID":"2024-146A","EPOCH":"2026-07-13T14:56:58.227360","CLASSIFICATION_TYPE":"U","MEAN_MOTION":15.15649961,"ECCENTRICITY":0.0008347,"INCLINATION":45.0021,"RA_OF_ASC_NODE":248.8164,"ARG_OF_PERICENTER":325.6532,"MEAN_ANOMALY":34.3806,"EPHEMERIS_TYPE":0,"NORAD_CAT_ID":60452,"ELEMENT_SET_NO":999,"REV_AT_EPOCH":10603,"BSTAR":0.00010474,"MEAN_MOTION_DOT":0.00001763,"MEAN_MOTION_DDOT":0},{"OBJECT_NAME":"LEGION 4","OBJECT_ID":"2024-146B","EPOCH":"2026-07-13T19:41:22.354368","CLASSIFICATION_TYPE":"U","MEAN_MOTION":15.15675651,"ECCENTRICITY":0.000893,"INCLINATION":45.003,"RA_OF_ASC_NODE":339.6246,"ARG_OF_PERICENTER":105.109,"MEAN_ANOMALY":255.0777,"EPHEMERIS_TYPE":0,"NORAD_CAT_ID":60453,"ELEMENT_SET_NO":999,"REV_AT_EPOCH":10491,"BSTAR":0.00013171,"MEAN_MOTION_DOT":0.00002286,"MEAN_MOTION_DDOT":0},{"OBJECT_NAME":"LEGION 5","OBJECT_ID":"2025-025A","EPOCH":"2026-07-13T07:02:42.739872","CLASSIFICATION_TYPE":"U","MEAN_MOTION":15.1606633,"ECCENTRICITY":0.00083905,"INCLINATION":44.9999,"RA_OF_ASC_NODE":161.4129,"ARG_OF_PERICENTER":293.2355,"MEAN_ANOMALY":66.764,"EPHEMERIS_TYPE":0,"NORAD_CAT_ID":62900,"ELEMENT_SET_NO":999,"REV_AT_EPOCH":7845,"BSTAR":0.00011021038,"MEAN_MOTION_DOT":0.00001893,"MEAN_MOTION_DDOT":0},{"OBJECT_NAME":"LEGION 6","OBJECT_ID":"2025-025B","EPOCH":"2026-07-13T02:16:12.497376","CLASSIFICATION_TYPE":"U","MEAN_MOTION":15.15680636,"ECCENTRICITY":0.00108295,"INCLINATION":45.0016,"RA_OF_ASC_NODE":71.6221,"ARG_OF_PERICENTER":265.95,"MEAN_ANOMALY":94.0141,"EPHEMERIS_TYPE":0,"NORAD_CAT_ID":62901,"ELEMENT_SET_NO":999,"REV_AT_EPOCH":7956,"BSTAR":0.000095333114,"MEAN_MOTION_DOT":0.00001582,"MEAN_MOTION_DDOT":0}]}
