LEGION 1                
1 59625U 24081A   26194.81374885  .00001989  00000+0  10450-3 0  9997
2 59625  97.5014 272.3882 0007692 275.2188  84.8167 15.16838621121575
LEGION 2                
1 59626U 24081B   26194.84411491  .00002084  00000+0  10936-3 0  9992
2 59626  97.5015 272.5151 0010122 238.6068 121.4176 15.16817567121585
LEGION 3                
1 60452U 24146A   26194.62289615  .00001763  00000+0  10474-3 0  9990
2 60452  45.0021 248.8164 0008347 325.6532  34.3806 15.15649961106033
LEGION 4                
1 60453U 24146B   26194.82039762  .00002286  00000+0  13171-3 0  9997
2 60453  45.0030 339.6246 0008930 105.1090 255.0777 15.15675651104911
LEGION 5                
1 62900U 25025A   26194.29355023  .00001893  00000+0  11021-3 0  9990
2 62900  44.9999 161.4129 0008390 293.2355  66.7640 15.16066330 78450
LEGION 6                
1 62901U 25025B   26194.09458909  .00001582  00000+0  95333-4 0  9990
2 62901  45.0016  71.6221 0010829 265.9500  94.0141 15.15680636 79569
